start=new Date('2022-11-17T00:00:00.000Z').valueOf();
sats=[{"EPOCH":"2022-11-16T19:01:05.098368","MEAN_MOTION_DOT":"0.00002901","SITE":"AFETR","CENTER_NAME":"EARTH","RA_OF_ASC_NODE":"153.5726","SEMIMAJOR_AXIS":"6925.326","EPHEMERIS_TYPE":"0","ELEMENT_SET_NO":"999","ARG_OF_PERICENTER":"86.4868","REV_AT_EPOCH":"12617","APOAPSIS":"548.238","RCS_SIZE":"LARGE","MEAN_ELEMENT_THEORY":"SGP4","COUNTRY_CODE":"US","NORAD_CAT_ID":"46042","OBJECT_ID":"2020-055R","PERIAPSIS":"546.144","MEAN_MOTION_DDOT":"0.0000000000000","TLE_LINE1":"1 46042U 20055R   22320.79242012  .00002901  00000-0  21355-3 0  9995","REF_FRAME":"TEME","MEAN_MOTION":"15.06407253","BSTAR":"0.00021355000000","FILE":"3660133","OBJECT_NAME":"STARLINK-1581","MEAN_ANOMALY":"273.6294","INCLINATION":"53.0546","TLE_LINE2":"2 46042  53.0546 153.5726 0001512  86.4868 273.6294 15.06407253126172","LAUNCH_DATE":"2020-08-07","GP_ID":"217980276","ECCENTRICITY":"0.00015120","CLASSIFICATION_TYPE":"U","TIME_SYSTEM":"UTC","OBJECT_TYPE":"PAYLOAD","PERIOD":"95.592","DECAY_DATE":null},{"CLASSIFICATION_TYPE":"U","TIME_SYSTEM":"UTC","DECAY_DATE":null,"OBJECT_TYPE":"PAYLOAD","PERIOD":"95.592","OBJECT_NAME":"STARLINK-1582","MEAN_ANOMALY":"284.5993","FILE":"3660705","BSTAR":"0.00014005000000","ECCENTRICITY":"0.00014820","GP_ID":"218012588","TLE_LINE2":"2 46043  53.0535 153.6020 0001482  75.5160 284.5993 15.06396261126677","LAUNCH_DATE":"2020-08-07","INCLINATION":"53.0535","COUNTRY_CODE":"US","NORAD_CAT_ID":"46043","OBJECT_ID":"2020-055S","MEAN_ELEMENT_THEORY":"SGP4","RCS_SIZE":"LARGE","MEAN_MOTION":"15.06396261","TLE_LINE1":"1 46043U 20055S   22320.78505760  .00001805  00000-0  14005-3 0  9993","MEAN_MOTION_DDOT":"0.0000000000000","REF_FRAME":"TEME","PERIAPSIS":"546.199","RA_OF_ASC_NODE":"153.6020","MEAN_MOTION_DOT":"0.00001805","SITE":"AFETR","CENTER_NAME":"EARTH","EPOCH":"2022-11-16T18:50:28.976640","REV_AT_EPOCH":"12667","APOAPSIS":"548.251","EPHEMERIS_TYPE":"0","ARG_OF_PERICENTER":"75.5160","ELEMENT_SET_NO":"999","SEMIMAJOR_AXIS":"6925.360"},{"RA_OF_ASC_NODE":"153.5370","MEAN_MOTION_DOT":"0.00001582","SITE":"AFETR","CENTER_NAME":"EARTH","EPOCH":"2022-11-16T19:10:22.501920","REV_AT_EPOCH":"12668","APOAPSIS":"548.230","EPHEMERIS_TYPE":"0","ELEMENT_SET_NO":"999","ARG_OF_PERICENTER":"90.8894","SEMIMAJOR_AXIS":"6925.382","OBJECT_ID":"2020-055T","COUNTRY_CODE":"US","NORAD_CAT_ID":"46044","MEAN_ELEMENT_THEORY":"SGP4","RCS_SIZE":"LARGE","MEAN_MOTION":"15.06389108","TLE_LINE1":"1 46044U 20055T   22320.79887155  .00001582  00000-0  12513-3 0  9990","MEAN_MOTION_DDOT":"0.0000000000000","REF_FRAME":"TEME","PERIAPSIS":"546.264","OBJECT_NAME":"STARLINK-1584","MEAN_ANOMALY":"269.2258","FILE":"3660705","BSTAR":"0.00012513000000","ECCENTRICITY":"0.00014190","GP_ID":"218013340","TLE_LINE2":"2 46044  53.0532 153.5370 0001419  90.8894 269.2258 15.06389108126683","INCLINATION":"53.0532","LAUNCH_DATE":"2020-08-07","CLASSIFICATION_TYPE":"U","TIME_SYSTEM":"UTC","DECAY_DATE":null,"OBJECT_TYPE":"PAYLOAD","PERIOD":"95.593"},{"ELEMENT_SET_NO":"999","ARG_OF_PERICENTER":"74.1369","EPHEMERIS_TYPE":"0","SEMIMAJOR_AXIS":"6925.361","APOAPSIS":"548.298","REV_AT_EPOCH":"12666","EPOCH":"2022-11-16T19:27:38.630592","RA_OF_ASC_NODE":"153.4933","CENTER_NAME":"EARTH","SITE":"AFETR","MEAN_MOTION_DOT":"0.00002050","PERIAPSIS":"546.155","MEAN_MOTION":"15.06395886","REF_FRAME":"TEME","MEAN_MOTION_DDOT":"0.0000000000000","TLE_LINE1":"1 46045U 20055U   22320.81086378  .00002050  00000-0  15648-3 0  9995","MEAN_ELEMENT_THEORY":"SGP4","RCS_SIZE":"LARGE","OBJECT_ID":"2020-055U","COUNTRY_CODE":"US","NORAD_CAT_ID":"46045","GP_ID":"218013586","TLE_LINE2":"2 46045  53.0549 153.4933 0001547  74.1369 285.9790 15.06395886126664","INCLINATION":"53.0549","LAUNCH_DATE":"2020-08-07","ECCENTRICITY":"0.00015470","FILE":"3660705","BSTAR":"0.00015648000000","MEAN_ANOMALY":"285.9790","OBJECT_NAME":"STARLINK-1591","PERIOD":"95.592","OBJECT_TYPE":"PAYLOAD","DECAY_DATE":null,"TIME_SYSTEM":"UTC","CLASSIFICATION_TYPE":"U"},{"PERIOD":"95.593","OBJECT_TYPE":"PAYLOAD","DECAY_DATE":null,"TIME_SYSTEM":"UTC","CLASSIFICATION_TYPE":"U","INCLINATION":"53.0551","TLE_LINE2":"2 46047  53.0551 143.3854 0001414  77.6164 282.4983 15.06392884126822","LAUNCH_DATE":"2020-08-07","GP_ID":"218011841","ECCENTRICITY":"0.00014140","BSTAR":"-0.00000456350000","FILE":"3660705","MEAN_ANOMALY":"282.4983","OBJECT_NAME":"STARLINK-1524","PERIAPSIS":"546.256","REF_FRAME":"TEME","TLE_LINE1":"1 46047U 20055W   22320.83021260 -.00000349  00000-0 -45635-5 0  9990","MEAN_MOTION_DDOT":"0.0000000000000","MEAN_MOTION":"15.06392884","RCS_SIZE":"LARGE","MEAN_ELEMENT_THEORY":"SGP4","COUNTRY_CODE":"US","NORAD_CAT_ID":"46047","OBJECT_ID":"2020-055W","SEMIMAJOR_AXIS":"6925.370","ELEMENT_SET_NO":"999","ARG_OF_PERICENTER":"77.6164","EPHEMERIS_TYPE":"0","APOAPSIS":"548.215","REV_AT_EPOCH":"12682","EPOCH":"2022-11-16T19:55:30.368640","SITE":"AFETR","CENTER_NAME":"EARTH","MEAN_MOTION_DOT":"-0.00000349","RA_OF_ASC_NODE":"143.3854"},{"OBJECT_TYPE":"PAYLOAD","PERIOD":"95.593","DECAY_DATE":null,"CLASSIFICATION_TYPE":"U","TIME_SYSTEM":"UTC","LAUNCH_DATE":"2020-08-07","TLE_LINE2":"2 46048  53.0537 143.4235 0001451  87.0172 273.0983 15.06388982126804","INCLINATION":"53.0537","GP_ID":"218012088","ECCENTRICITY":"0.00014510","BSTAR":"0.00013567000000","FILE":"3660705","OBJECT_NAME":"STARLINK-1527","MEAN_ANOMALY":"273.0983","PERIAPSIS":"546.242","TLE_LINE1":"1 46048U 20055X   22320.82653761  .00001739  00000-0  13567-3 0  9996","MEAN_MOTION_DDOT":"0.0000000000000","REF_FRAME":"TEME","MEAN_MOTION":"15.06388982","RCS_SIZE":"LARGE","MEAN_ELEMENT_THEORY":"SGP4","NORAD_CAT_ID":"46048","COUNTRY_CODE":"US","OBJECT_ID":"2020-055X","SEMIMAJOR_AXIS":"6925.382","EPHEMERIS_TYPE":"0","ELEMENT_SET_NO":"999","ARG_OF_PERICENTER":"87.0172","REV_AT_EPOCH":"12680","APOAPSIS":"548.252","EPOCH":"2022-11-16T19:50:12.849504","MEAN_MOTION_DOT":"0.00001739","CENTER_NAME":"EARTH","SITE":"AFETR","RA_OF_ASC_NODE":"143.4235"},{"GP_ID":"218012840","TLE_LINE2":"2 46049  53.0526 143.4398 0001523  67.8093 292.3058 15.06380779126837","LAUNCH_DATE":"2020-08-07","INCLINATION":"53.0526","ECCENTRICITY":"0.00015230","FILE":"3660705","BSTAR":"-0.00013194000000","OBJECT_NAME":"STARLINK-1530","MEAN_ANOMALY":"292.3058","OBJECT_TYPE":"PAYLOAD","PERIOD":"95.593","DECAY_DATE":null,"CLASSIFICATION_TYPE":"U","TIME_SYSTEM":"UTC","EPHEMERIS_TYPE":"0","ARG_OF_PERICENTER":"67.8093","ELEMENT_SET_NO":"999","SEMIMAJOR_AXIS":"6925.407","REV_AT_EPOCH":"12683","APOAPSIS":"548.327","EPOCH":"2022-11-16T19:44:54.303072","RA_OF_ASC_NODE":"143.4398","MEAN_MOTION_DOT":"-0.00002245","SITE":"AFETR","CENTER_NAME":"EARTH","PERIAPSIS":"546.218","MEAN_MOTION":"15.06380779","MEAN_MOTION_DDOT":"0.0000000000000","TLE_LINE1":"1 46049U 20055Y   22320.82285073 -.00002245  00000-0 -13194-3 0  9995","REF_FRAME":"TEME","MEAN_ELEMENT_THEORY":"SGP4","RCS_SIZE":"LARGE","NORAD_CAT_ID":"46049","COUNTRY_CODE":"US","OBJECT_ID":"2020-055Y"},{"TIME_SYSTEM":"UTC","CLASSIFICATION_TYPE":"U","DECAY_DATE":null,"PERIOD":"95.592","OBJECT_TYPE":"PAYLOAD","MEAN_ANOMALY":"277.7151","OBJECT_NAME":"STARLINK-1540","BSTAR":"0.00010835000000","FILE":"3660705","ECCENTRICITY":"0.00016590","TLE_LINE2":"2 46051  53.0547 143.5687 0001659  82.4027 277.7151 15.06399664126839","INCLINATION":"53.0547","LAUNCH_DATE":"2020-08-07","GP_ID":"218013086","COUNTRY_CODE":"US","NORAD_CAT_ID":"46051","OBJECT_ID":"2020-055AA","RCS_SIZE":"LARGE","MEAN_ELEMENT_THEORY":"SGP4","REF_FRAME":"TEME","MEAN_MOTION_DDOT":"0.0000000000000","TLE_LINE1":"1 46051U 20055AA  22320.79334971  .00001333  00000-0  10835-3 0  9990","MEAN_MOTION":"15.06399664","PERIAPSIS":"546.066","SITE":"AFETR","CENTER_NAME":"EARTH","MEAN_MOTION_DOT":"0.00001333","RA_OF_ASC_NODE":"143.5687","EPOCH":"2022-11-16T19:02:25.414944","APOAPSIS":"548.364","REV_AT_EPOCH":"12683","SEMIMAJOR_AXIS":"6925.350","ARG_OF_PERICENTER":"82.4027","ELEMENT_SET_NO":"999","EPHEMERIS_TYPE":"0"},{"BSTAR":"0.00000989680000","FILE":"3660705","MEAN_ANOMALY":"272.3687","OBJECT_NAME":"STARLINK-1541","LAUNCH_DATE":"2020-08-07","TLE_LINE2":"2 46052  53.0558 143.6413 0001455  87.7469 272.3687 15.06392894126790","INCLINATION":"53.0558","GP_ID":"218012341","ECCENTRICITY":"0.00014550","TIME_SYSTEM":"UTC","CLASSIFICATION_TYPE":"U","PERIOD":"95.593","OBJECT_TYPE":"PAYLOAD","DECAY_DATE":null,"EPOCH":"2022-11-16T18:41:11.538528","SITE":"AFETR","CENTER_NAME":"EARTH","MEAN_MOTION_DOT":"-0.00000134","RA_OF_ASC_NODE":"143.6413","SEMIMAJOR_AXIS":"6925.370","ARG_OF_PERICENTER":"87.7469","ELEMENT_SET_NO":"999","EPHEMERIS_TYPE":"0","APOAPSIS":"548.243","REV_AT_EPOCH":"12679","RCS_SIZE":"LARGE","MEAN_ELEMENT_THEORY":"SGP4","NORAD_CAT_ID":"46052","COUNTRY_CODE":"US","OBJECT_ID":"2020-055AB","PERIAPSIS":"546.228","REF_FRAME":"TEME","TLE_LINE1":"1 46052U 20055AB  22320.77860577 -.00000134  00000-0  98968-5 0  9999","MEAN_MOTION_DDOT":"0.0000000000000","MEAN_MOTION":"15.06392894"},{"TIME_SYSTEM":"UTC","CLASSIFICATION_TYPE":"U","DECAY_DATE":null,"PERIOD":"95.592","OBJECT_TYPE":"PAYLOAD","MEAN_ANOMALY":"294.4281","OBJECT_NAME":"STARLINK-1543","FILE":"3660705","BSTAR":"0.00005515700000","ECCENTRICITY":"0.00015790","GP_ID":"218012589","LAUNCH_DATE":"2020-08-07","TLE_LINE2":"2 46053  53.0542 143.6271 0001579  65.6873 294.4281 15.06397708126825","INCLINATION":"53.0542","COUNTRY_CODE":"US","NORAD_CAT_ID":"46053","OBJECT_ID":"2020-055AC","MEAN_ELEMENT_THEORY":"SGP4","RCS_SIZE":"LARGE","MEAN_MOTION":"15.06397708","REF_FRAME":"TEME","MEAN_MOTION_DDOT":"0.0000000000000","TLE_LINE1":"1 46053U 20055AC  22320.78229012  .00000540  00000-0  55157-4 0  9996","PERIAPSIS":"546.127","RA_OF_ASC_NODE":"143.6271","CENTER_NAME":"EARTH","SITE":"AFETR","MEAN_MOTION_DOT":"0.00000540","EPOCH":"2022-11-16T18:46:29.866368","APOAPSIS":"548.314","REV_AT_EPOCH":"12682","ELEMENT_SET_NO":"999","ARG_OF_PERICENTER":"65.6873","EPHEMERIS_TYPE":"0","SEMIMAJOR_AXIS":"6925.356"}];
